[{"OBJECT_NAME":"BRO-10","OBJECT_ID":"2023-174CD","EPOCH":"2026-03-09T23:34:33.500352","MEAN_MOTION":15.73235012,"ECCENTRICITY":0.00030107,"INCLINATION":97.3656,"RA_OF_ASC_NODE":162.3972,"ARG_OF_PERICENTER":146.5418,"MEAN_ANOMALY":213.6037,"EPHEMERIS_TYPE":0,"CLASSIFICATION_TYPE":"U","NORAD_CAT_ID":58331,"ELEMENT_SET_NO":999,"REV_AT_EPOCH":13076,"BSTAR":0.0013973225,"MEAN_MOTION_DOT":0.00196052,"MEAN_MOTION_DDOT":0},{"OBJECT_NAME":"STARLINK-11640 [DTC]","OBJECT_ID":"2025-057H","EPOCH":"2026-03-09T14:37:36.492096","MEAN_MOTION":15.70883974,"ECCENTRICITY":0.0003073,"INCLINATION":43.0021,"RA_OF_ASC_NODE":265.1347,"ARG_OF_PERICENTER":276.7909,"MEAN_ANOMALY":83.2608,"EPHEMERIS_TYPE":0,"CLASSIFICATION_TYPE":"U","NORAD_CAT_ID":63314,"ELEMENT_SET_NO":999,"REV_AT_EPOCH":5716,"BSTAR":0.0015891,"MEAN_MOTION_DOT":0.00209068,"MEAN_MOTION_DDOT":0}]
